[{"OBJECT_NAME":"SWARM B","OBJECT_ID":"2013-067A","EPOCH":"2026-03-09T22:20:48.706656","MEAN_MOTION":15.27862638,"ECCENTRICITY":0.00036996,"INCLINATION":87.749,"RA_OF_ASC_NODE":12.4162,"ARG_OF_PERICENTER":86.3179,"MEAN_ANOMALY":273.8493,"EPHEMERIS_TYPE":0,"CLASSIFICATION_TYPE":"U","NORAD_CAT_ID":39451,"ELEMENT_SET_NO":999,"REV_AT_EPOCH":66808,"BSTAR":0.00020534236,"MEAN_MOTION_DOT":5.616e-5,"MEAN_MOTION_DDOT":0},{"OBJECT_NAME":"STARLINK-31422","OBJECT_ID":"2024-060G","EPOCH":"2026-03-09T12:41:08.367648","MEAN_MOTION":15.27570701,"ECCENTRICITY":0.00016566,"INCLINATION":43.0044,"RA_OF_ASC_NODE":261.1618,"ARG_OF_PERICENTER":266.9669,"MEAN_ANOMALY":93.0993,"EPHEMERIS_TYPE":0,"CLASSIFICATION_TYPE":"U","NORAD_CAT_ID":59354,"ELEMENT_SET_NO":999,"REV_AT_EPOCH":11003,"BSTAR":1.7516705e-5,"MEAN_MOTION_DOT":2.2e-6,"MEAN_MOTION_DDOT":0}]
